[{"OBJECT_NAME":"GEISAT PRECURSOR","OBJECT_ID":"2023-084C","EPOCH":"2026-03-09T22:20:25.833120","MEAN_MOTION":15.33054389,"ECCENTRICITY":0.00051675,"INCLINATION":97.6055,"RA_OF_ASC_NODE":206.8263,"ARG_OF_PERICENTER":345.1842,"MEAN_ANOMALY":14.9247,"EPHEMERIS_TYPE":0,"CLASSIFICATION_TYPE":"U","NORAD_CAT_ID":56934,"ELEMENT_SET_NO":999,"REV_AT_EPOCH":15231,"BSTAR":0.00033857167,"MEAN_MOTION_DOT":0.00010736,"MEAN_MOTION_DDOT":0},{"OBJECT_NAME":"STARLINK-34519","OBJECT_ID":"2025-137Q","EPOCH":"2026-03-09T22:31:30.999936","MEAN_MOTION":15.30165623,"ECCENTRICITY":0.00012048,"INCLINATION":53.1599,"RA_OF_ASC_NODE":334.0375,"ARG_OF_PERICENTER":90.559,"MEAN_ANOMALY":269.5548,"EPHEMERIS_TYPE":0,"CLASSIFICATION_TYPE":"U","NORAD_CAT_ID":64608,"ELEMENT_SET_NO":999,"REV_AT_EPOCH":4077,"BSTAR":0.0005809309,"MEAN_MOTION_DOT":0.00016867,"MEAN_MOTION_DDOT":0}]
